# Data extracted from JNSQ configuration files: https://github.com/Galileo88/JNSQ/tree/master/GameData/JNSQ/JNSQ_Bodies
# 

- !!map
  id:                 0
  name:               Sun
  radius:             175750000
  atmosphereAlt:      800000
  mass:               1.2571450461925315e+29
  stdGravParam:       8390563181802812000
  soi:                .inf
  color:              0xffff00

- !!map
  id:                 1
  name:               Moho
  radius:             650000
  mass:               1.8002783681434758e+22
  stdGravParam:       1201559791250
  soi:                26571746.745299827
  orbit:
    semiMajorAxis:    14522400000
    eccentricity:     0.2
    inclination:      7
    argOfPeriapsis:   15
    ascNodeLongitude: 70
  meanAnomaly0:       0
  epoch:              0
  orbiting:           0
  color:              0xedb687

- !!map
  id:                 2
  name:               Eve
  radius:             2050000
  atmosphereAlt:      60000
  mass:               8.644715591897279e+23
  stdGravParam:       57697425275000
  soi:                233567240.5801821
  orbit:
    semiMajorAxis:    27131000000
    eccentricity:     0.01
    inclination:      2.1
    argOfPeriapsis:   45
    ascNodeLongitude: 15
  meanAnomaly0:       5.7
  epoch:              0
  orbiting:           0
  color:              0x6c1fe3

- !!map
  id:                 3
  name:               Gilly
  radius:             30000
  mass:               991787715565677300
  stdGravParam:       66194887.49999999
  soi:                365583.78394851263
  orbit:
    semiMajorAxis:    86920000
    eccentricity:     0.55
    inclination:      12
    argOfPeriapsis:   10
    ascNodeLongitude: 80
  meanAnomaly0:       0
  epoch:              0
  orbiting:           2
  color:              0xa17d6d

- !!map
  id:                 4
  name:               Kerbin
  radius:             1600000
  atmosphereAlt:      80000
  mass:               3.761446743478717e+23
  stdGravParam:       25105024000000
  soi:                231587977.95636657
  orbit:
    semiMajorAxis:    37525647898.4324
    eccentricity:     0.02
    inclination:      0
    argOfPeriapsis:   0
    ascNodeLongitude: 0
  meanAnomaly0:       0
  epoch:              0
  orbiting:           0
  color:              0x89c9c2

- !!map
  id:                 5
  name:               Mun
  radius:             400000
  mass:               3.408811111277587e+21
  stdGravParam:       227514279999.99994
  soi:                1828438.9065572524
  orbit:
    semiMajorAxis:    90960000
    eccentricity:     0.005
    inclination:      0.5
    argOfPeriapsis:   165
    ascNodeLongitude: 45
  meanAnomaly0:       0
  epoch:              0
  orbiting:           4
  color:              0x9c9fb4

- !!map
  id:                 6
  name:               Minmus
  radius:             160000
  mass:               188072337173935850000
  stdGravParam:       12552512000
  soi:                2247428.3745065867
  orbit:
    semiMajorAxis:    146970000
    eccentricity:     0.03
    inclination:      6
    argOfPeriapsis:   315
    ascNodeLongitude: 75
  meanAnomaly0:       0.5235987755982988
  epoch:              0
  orbiting:           4
  color:              0x997f66

- !!map
  id:                 7
  name:               Duna
  radius:             800000
  atmosphereAlt:      70000
  mass:               3.197229731956909e+22
  stdGravParam:       2133927039999.9998
  soi:                131664484.71863492
  orbit:
    semiMajorAxis:    57189100000
    eccentricity:     0.051
    inclination:      0.06
    argOfPeriapsis:   345
    ascNodeLongitude: 135.5
  meanAnomaly0:       0.9
  epoch:              0
  orbiting:           0
  color:              0xa23e28

- !!map
  id:                 8
  name:               Ike
  radius:             210000
  mass:               388780784501745500000
  stdGravParam:       25948395900
  soi:                6286395.586009538
  orbit:
    semiMajorAxis:    36680000
    eccentricity:     0.03
    inclination:      0.2
    argOfPeriapsis:   345
    ascNodeLongitude: 90
  meanAnomaly0:       3.141592653589793
  epoch:              0
  orbiting:           7
  color:              0x85899a

- !!map
  id:                 9
  name:               Edna
  radius:             260000
  mass:               794605624559879000000
  stdGravParam:       53034363200
  soi:                49408743.240431264
  orbit:
    semiMajorAxis:    94080000000
    eccentricity:     0.07
    inclination:      3
    argOfPeriapsis:   310
    ascNodeLongitude: 30
  meanAnomaly0:       0
  epoch:              0
  orbiting:           0
  color:              0x8c5926

- !!map
  id:                 10
  name:               Dak
  radius:             20000
  mass:               470180842934839700
  stdGravParam:       31381280
  soi:                243985.32028465412
  orbit:
    semiMajorAxis:    4770000
    eccentricity:     0.01
    inclination:      10
    argOfPeriapsis:   90
    ascNodeLongitude: 120
  meanAnomaly0:       0
  epoch:              0
  orbiting:           9
  color:              0x7f7f7f

- !!map
  id:                 11
  name:               Dres
  radius:             360000
  mass:               2.2850788966633206e+21
  stdGravParam:       152513020800
  soi:                90298417.96941411
  orbit:
    semiMajorAxis:    112687000000
    eccentricity:     0.145
    inclination:      5
    argOfPeriapsis:   90
    ascNodeLongitude: 280
  meanAnomaly0:       3.9
  epoch:              0
  orbiting:           0
  color:              0x5a4431

- !!map
  id:                 12
  name:               Jool
  radius:             14000000
  atmosphereAlt:      500000
  mass:               2.9950519694949285e+25
  stdGravParam:       1998987536000000
  soi:                6745648454.989384
  orbit:
    semiMajorAxis:    189765000000
    eccentricity:     0.05
    inclination:      1.304
    argOfPeriapsis:   30
    ascNodeLongitude: 52
  meanAnomaly0:       0.6
  epoch:              0
  orbiting:           0
  color:              0x538513

- !!map
  id:                 13
  name:               Laythe
  radius:             1100000
  atmosphereAlt:      75000
  mass:               1.0311653611614702e+23
  stdGravParam:       6882306970000
  soi:                9067174.004441231
  orbit:
    semiMajorAxis:    87640000
    eccentricity:     0.01
    inclination:      0.2
    argOfPeriapsis:   120
    ascNodeLongitude: 120
  meanAnomaly0:       3.141592653589793
  epoch:              0
  orbiting:           12
  color:              0x44559c

- !!map
  id:                 14
  name:               Vall
  radius:             550000
  mass:               8.00042090556313e+21
  stdGravParam:       533972092499.99994
  soi:                5962483.9371094955
  orbit:
    semiMajorAxis:    160230000
    eccentricity:     0.03
    inclination:      0.3
    argOfPeriapsis:   270
    ascNodeLongitude: 90
  meanAnomaly0:       3.141592653589793
  epoch:              0
  orbiting:           12
  color:              0x6d9bb4

- !!map
  id:                 15
  name:               Tylo
  radius:             900000
  atmosphereAlt:      85000
  mass:               3.808464827772201e+22
  stdGravParam:       2541883680000
  soi:                20348468.910313632
  orbit:
    semiMajorAxis:    292950000
    eccentricity:     0.01
    inclination:      0.1
    argOfPeriapsis:   285
    ascNodeLongitude: 150
  meanAnomaly0:       4.71238898038469
  epoch:              0
  orbiting:           12
  color:              0xd2aaaa

- !!map
  id:                 16
  name:               Bop
  radius:             190000
  mass:               265211381717933000000
  stdGravParam:       17701003250
  soi:                5552918.821056443
  orbit:
    semiMajorAxis:    582970000
    eccentricity:     0.235
    inclination:      15
    argOfPeriapsis:   25
    ascNodeLongitude: 10
  meanAnomaly0:       4.71238898038468
  epoch:              0
  orbiting:           12
  color:              0x5d503f

- !!map
  id:                 17
  name:               Pol
  radius:             130000
  mass:               74494277302488660000
  stdGravParam:       4971971550
  soi:                4238401.609946894
  orbit:
    semiMajorAxis:    739460000
    eccentricity:     0.17085
    inclination:      4.25
    argOfPeriapsis:   15
    ascNodeLongitude: 2
  meanAnomaly0:       1.8
  epoch:              0
  orbiting:           12
  color:              0xdce3ac

- !!map
  id:                 18
  name:               Lindor
  radius:             8000000
  atmosphereAlt:      420000
  mass:               8.839399847174986e+24
  stdGravParam:       589968064000000
  soi:                7845120421.877267
  orbit:
    semiMajorAxis:    359571000000
    eccentricity:     0.03
    inclination:      1.7
    argOfPeriapsis:   75
    ascNodeLongitude: 80
  meanAnomaly0:       3.3
  epoch:              0
  orbiting:           0
  color:              0x4c8ccc

- !!map
  id:                 19
  name:               Krel
  radius:             150000
  mass:               99178771556567740000
  stdGravParam:       6619488750
  soi:                613615.0375682309
  orbit:
    semiMajorAxis:    58600000
    eccentricity:     0.02
    inclination:      1.5
    argOfPeriapsis:   180
    ascNodeLongitude: 60
  meanAnomaly0:       0
  epoch:              0
  orbiting:           18
  color:              0xb2997f

- !!map
  id:                 20
  name:               Aden
  radius:             300000
  mass:               925668534527965700000
  stdGravParam:       61781895000.00001
  soi:                2741351.5367178093
  orbit:
    semiMajorAxis:    107140000
    eccentricity:     0.01
    inclination:      0.25
    argOfPeriapsis:   30
    ascNodeLongitude: 120
  meanAnomaly0:       4.71238898038469
  epoch:              0
  orbiting:           18
  color:              0x99b27f

